COMMENT,ORIGINATOR,NORAD_CAT_ID,OBJECT_NAME,OBJECT_TYPE,CLASSIFICATION_TYPE,INTLDES,EPOCH,EPOCH_MICROSECONDS,MEAN_MOTION,ECCENTRICITY,INCLINATION,RA_OF_ASC_NODE,ARG_OF_PERICENTER,MEAN_ANOMALY,EPHEMERIS_TYPE,ELEMENT_SET_NO,REV_AT_EPOCH,BSTAR,MEAN_MOTION_DOT,MEAN_MOTION_DDOT,FILE,TLE_LINE0,TLE_LINE1,TLE_LINE2,OBJECT_ID,OBJECT_NUMBER,SEMIMAJOR_AXIS,PERIOD,APOGEE,PERIGEE,DECAYED
GENERATED VIA SPACETRACK.ORG API,18 SPCS,44336,ARIANE 5 DEB (SYLDA),DEBRIS,U,19034D,2023-02-21 08:10:42,83904,3.07602719,0.6679483,5.7784,136.5944,16.5655,357.5182,0,999,3461,0.013214,0.00070935,0,3819803,0 ARIANE 5 DEB (SYLDA),1 44336U 19034D   23052.34076486  .00070935  00000-0  13214-1 0  9993,2 44336   5.7784 136.5944 6679483  16.5655 357.5182  3.07602719 34616,2019-034D,44336,19971.395,468.136,26933.119,253.401,0
GENERATED VIA SPACETRACK.ORG API,18 SPCS,44336,ARIANE 5 DEB (SYLDA),DEBRIS,U,19034D,2023-02-21 08:10:42,50208,3.076024,0.6679356,5.7786,136.5948,16.5665,357.5178,0,999,3459,0.012916,0.00068975,0,3820167,0 ARIANE 5 DEB (SYLDA),1 44336U 19034D   23052.34076447  .00068975  00000-0  12916-1 0  9999,2 44336   5.7786 136.5948 6679356  16.5665 357.5178  3.07602400 34591,2019-034D,44336,19971.408,468.137,26932.888,253.659,0
GENERATED VIA SPACETRACK.ORG API,18 SPCS,44336,ARIANE 5 DEB (SYLDA),DEBRIS,U,19034D,2023-02-21 08:10:42,50208,3.076024,0.6679356,5.7786,136.5948,16.5665,357.5178,0,999,3461,0.012916,0.00068975,0,3821329,0 ARIANE 5 DEB (SYLDA),1 44336U 19034D   23052.34076447  .00068975  00000-0  12916-1 0  9999,2 44336   5.7786 136.5948 6679356  16.5665 357.5178  3.07602400 34614,2019-034D,44336,19971.408,468.137,26932.888,253.659,0
GENERATED VIA SPACETRACK.ORG API,18 SPCS,44336,ARIANE 5 DEB (SYLDA),DEBRIS,U,19034D,2023-02-22 07:34:36,332256,3.07731687,0.6678389,5.7789,136.0027,17.7326,357.3483,0,999,3462,0.01236,0.00066003,0,3822924,0 ARIANE 5 DEB (SYLDA),1 44336U 19034D   23053.31569829  .00066003  00000-0  12360-1 0  9991,2 44336   5.7789 136.0027 6678389  17.7326 357.3483  3.07731687 34620,2019-034D,44336,19965.814,467.94,26921.627,253.732,0
GENERATED VIA SPACETRACK.ORG API,18 SPCS,44336,ARIANE 5 DEB (SYLDA),DEBRIS,U,19034D,2023-02-22 07:34:36,332256,3.07731687,0.6678389,5.7789,136.0027,17.7326,357.3483,0,999,3464,0.01236,0.00066003,0,3824148,0 ARIANE 5 DEB (SYLDA),1 44336U 19034D   23053.31569829  .00066003  00000-0  12360-1 0  9991,2 44336   5.7789 136.0027 6678389  17.7326 357.3483  3.07731687 34642,2019-034D,44336,19965.814,467.94,26921.627,253.732,0
GENERATED VIA SPACETRACK.ORG API,18 SPCS,44336,ARIANE 5 DEB (SYLDA),DEBRIS,U,19034D,2023-02-22 15:22:26,100768,3.07775513,0.6677984,5.7798,135.7989,18.1287,357.2891,0,999,3465,0.011969,0.00063714,0,3825529,0 ARIANE 5 DEB (SYLDA),1 44336U 19034D   23053.64057987  .00063714  00000-0  11969-1 0  9994,2 44336   5.7798 135.7989 6677984  18.1287 357.2891  3.07775513 34655,2019-034D,44336,19963.919,467.873,26917.657,253.911,0
GENERATED VIA SPACETRACK.ORG API,18 SPCS,44336,ARIANE 5 DEB (SYLDA),DEBRIS,U,19034D,2023-02-23 06:57:54,559584,3.07861539,0.6677251,5.7811,135.4049,18.908,357.1718,0,999,3465,0.013523,0.00071727,0,3827824,0 ARIANE 5 DEB (SYLDA),1 44336U 19034D   23054.29021481  .00071727  00000-0  13523-1 0  9997,2 44336   5.7811 135.4049 6677251  18.9080 357.1718  3.07861539 34652,2019-034D,44336,19960.2,467.743,26909.991,254.138,0
GENERATED VIA SPACETRACK.ORG API,18 SPCS,44336,ARIANE 5 DEB (SYLDA),DEBRIS,U,19034D,2023-02-23 06:57:54,559584,3.07861539,0.6677251,5.7811,135.4049,18.908,357.1718,0,999,3467,0.013523,0.00071727,0,3828819,0 ARIANE 5 DEB (SYLDA),1 44336U 19034D   23054.29021481  .00071727  00000-0  13523-1 0  9997,2 44336   5.7811 135.4049 6677251  18.9080 357.1718  3.07861539 34674,2019-034D,44336,19960.2,467.743,26909.991,254.138,0
GENERATED VIA SPACETRACK.ORG API,18 SPCS,44336,ARIANE 5 DEB (SYLDA),DEBRIS,U,19034D,2023-02-24 14:08:03,816384,3.08029263,0.6675787,5.7825,134.6149,20.4647,356.9297,0,999,3469,0.011276,0.00059248,0,3833833,0 ARIANE 5 DEB (SYLDA),1 44336U 19034D   23055.58893306  .00059248  00000-0  11276-1 0  9990,2 44336   5.7825 134.6149 6675787  20.4647 356.9297  3.08029263 34692,2019-034D,44336,19952.953,467.488,26894.985,254.652,0
GENERATED VIA SPACETRACK.ORG API,18 SPCS,44336,ARIANE 5 DEB (SYLDA),DEBRIS,U,19034D,2023-02-24 14:08:03,816384,3.08029263,0.6675787,5.7825,134.6149,20.4647,356.9297,0,999,3471,0.011276,0.00059248,0,3835059,0 ARIANE 5 DEB (SYLDA),1 44336U 19034D   23055.58893306  .00059248  00000-0  11276-1 0  9990,2 44336   5.7825 134.6149 6675787  20.4647 356.9297  3.08029263 34715,2019-034D,44336,19952.953,467.488,26894.985,254.652,0
GENERATED VIA SPACETRACK.ORG API,18 SPCS,44336,ARIANE 5 DEB (SYLDA),DEBRIS,U,19034D,2023-02-24 21:55:27,10848,3.08064524,0.6675429,5.7832,134.4129,20.86,356.8665,0,999,3470,0.010487,0.00054875,0,3836843,0 ARIANE 5 DEB (SYLDA),1 44336U 19034D   23055.91350707  .00054875  00000-0  10487-1 0  9994,2 44336   5.7832 134.4129 6675429  20.8600 356.8665  3.08064524 34701,2019-034D,44336,19951.431,467.435,26891.732,254.86,0
GENERATED VIA SPACETRACK.ORG API,18 SPCS,44336,ARIANE 5 DEB (SYLDA),DEBRIS,U,19034D,2023-02-25 05:42:46,828800,3.08100181,0.6675212,5.7837,134.2153,21.2484,356.8043,0,999,3473,0.010151,0.00053198,0,3837605,0 ARIANE 5 DEB (SYLDA),1 44336U 19034D   23056.23804200  .00053198  00000-0  10151-1 0  9997,2 44336   5.7837 134.2153 6675212  21.2484 356.8043  3.08100181 34739,2019-034D,44336,19949.892,467.38,26888.732,254.781,0
GENERATED VIA SPACETRACK.ORG API,18 SPCS,44336,ARIANE 5 DEB (SYLDA),DEBRIS,U,19034D,2023-02-26 05:04:26,717376,3.08212724,0.6674245,5.786,133.6268,22.4111,356.6157,0,999,3474,0.01252,0.00065224,0,3840782,0 ARIANE 5 DEB (SYLDA),1 44336U 19034D   23057.21142034  .00065224  00000-0  12520-1 0  9991,2 44336   5.7860 133.6268 6674245  22.4111 356.6157  3.08212724 34742,2019-034D,44336,19945.035,467.21,26878.705,255.095,0
GENERATED VIA SPACETRACK.ORG API,18 SPCS,44336,ARIANE 5 DEB (SYLDA),DEBRIS,U,19034D,2023-02-26 05:04:26,717376,3.08212724,0.6674245,5.786,133.6268,22.4111,356.6157,0,999,3476,0.01252,0.00065224,0,3841853,0 ARIANE 5 DEB (SYLDA),1 44336U 19034D   23057.21142034  .00065224  00000-0  12520-1 0  9991,2 44336   5.7860 133.6268 6674245  22.4111 356.6157  3.08212724 34764,2019-034D,44336,19945.035,467.21,26878.705,255.095,0
GENERATED VIA SPACETRACK.ORG API,18 SPCS,44336,ARIANE 5 DEB (SYLDA),DEBRIS,U,19034D,2023-02-26 12:51:32,571360,3.08255328,0.6673893,5.786,133.429,22.7987,356.5523,0,999,3477,0.012429,0.00064629,0,3843368,0 ARIANE 5 DEB (SYLDA),1 44336U 19034D   23057.53579365  .00064629  00000-0  12429-1 0  9993,2 44336   5.7860 133.4290 6673893  22.7987 356.5523  3.08255328 34773,2019-034D,44336,19943.197,467.145,26874.938,255.186,0
GENERATED VIA SPACETRACK.ORG API,18 SPCS,44336,ARIANE 5 DEB (SYLDA),DEBRIS,U,19034D,2023-02-27 04:25:33,708288,3.08336527,0.6673286,5.787,133.0341,23.5792,356.4239,0,999,3479,0.014997,0.00077936,0,3846396,0 ARIANE 5 DEB (SYLDA),1 44336U 19034D   23058.18441792  .00077936  00000-0  14997-1 0  9994,2 44336   5.7870 133.0341 6673286  23.5792 356.4239  3.08336527 34792,2019-034D,44336,19939.696,467.022,26867.89,255.231,0
GENERATED VIA SPACETRACK.ORG API,18 SPCS,44336,ARIANE 5 DEB (SYLDA),DEBRIS,U,19034D,2023-02-27 04:25:33,708288,3.08336527,0.6673286,5.787,133.0341,23.5792,356.4239,0,999,3477,0.014997,0.00077936,0,3846508,0 ARIANE 5 DEB (SYLDA),1 44336U 19034D   23058.18441792  .00077936  00000-0  14997-1 0  9994,2 44336   5.7870 133.0341 6673286  23.5792 356.4239  3.08336527 34770,2019-034D,44336,19939.696,467.022,26867.89,255.231,0
GENERATED VIA SPACETRACK.ORG API,18 SPCS,44336,ARIANE 5 DEB (SYLDA),DEBRIS,U,19034D,2023-02-28 03:46:02,298720,3.08503818,0.6672294,5.7879,132.443,24.7465,356.2317,0,999,3480,0.016823,0.00088192,0,3847384,0 ARIANE 5 DEB (SYLDA),1 44336U 19034D   23059.15697105  .00088192  00000-0  16823-1 0  9999,2 44336   5.7879 132.4430 6672294  24.7465 356.2317  3.08503818 34807,2019-034D,44336,19932.487,466.769,26853.893,254.811,0
GENERATED VIA SPACETRACK.ORG API,18 SPCS,44336,ARIANE 5 DEB (SYLDA),DEBRIS,U,19034D,2023-02-28 11:32:41,902656,3.08548285,0.6671807,5.788,132.246,25.135,356.1676,0,999,3483,0.013601,0.0007078,0,3847542,0 ARIANE 5 DEB (SYLDA),1 44336U 19034D   23059.48104054  .00070780  00000-0  13601-1 0  9996,2 44336   5.7880 132.2460 6671807  25.1350 356.1676  3.08548285 34834,2019-034D,44336,19930.571,466.702,26849.729,255.144,0
GENERATED VIA SPACETRACK.ORG API,18 SPCS,44336,ARIANE 5 DEB (SYLDA),DEBRIS,U,19034D,2023-02-28 11:32:41,902656,3.08548285,0.6671807,5.788,132.246,25.135,356.1676,0,999,3481,0.013601,0.0007078,0,3847710,0 ARIANE 5 DEB (SYLDA),1 44336U 19034D   23059.48104054  .00070780  00000-0  13601-1 0  9996,2 44336   5.7880 132.2460 6671807  25.1350 356.1676  3.08548285 34812,2019-034D,44336,19930.571,466.702,26849.729,255.144,0
GENERATED VIA SPACETRACK.ORG API,18 SPCS,44336,ARIANE 5 DEB (SYLDA),DEBRIS,U,19034D,2023-02-28 19:19:17,391360,3.0858545,0.6671474,5.7884,132.0487,25.5253,356.1035,0,999,3484,0.010718,0.00055564,0,3847656,0 ARIANE 5 DEB (SYLDA),1 44336U 19034D   23059.80506240  .00055564  00000-0  10718-1 0  9994,2 44336   5.7884 132.0487 6671474  25.5253 356.1035  3.08585450 34846,2019-034D,44336,19928.971,466.645,26846.397,255.275,0
GENERATED VIA SPACETRACK.ORG API,18 SPCS,44336,ARIANE 5 DEB (SYLDA),DEBRIS,U,19034D,2023-02-28 19:19:17,213376,3.08589127,0.6671278,5.7881,132.0471,25.528,356.1025,0,999,3482,0.010338,0.00053228,0,3848031,0 ARIANE 5 DEB (SYLDA),1 44336U 19034D   23059.80506034  .00053228  00000-0  10338-1 0  9998,2 44336   5.7881 132.0471 6671278  25.5280 356.1025  3.08589127 34820,2019-034D,44336,19928.813,466.64,26845.743,255.613,0
